{"type": "FeatureCollection", "features": [ {"type": "Feature", "properties": {"norad_id": 33492, "name": "GOSAT (IBUKI)", "group": "resource", "lat": 12.237236531284912, "lon": -76.34980009235653, "alt_km": 669.9671908450591, "timestamp": "2025-12-19T08:58:48.994159+00:00", "meta": {"OBJECT_NAME": "GOSAT (IBUKI)", "OBJECT_ID": "2009-002A", "EPOCH": "2025-12-18T20:45:53.409600", "MEAN_MOTION": 14.67537026, "ECCENTRICITY": 9.928e-05, "INCLINATION": 98.0772, "RA_OF_ASC_NODE": 101.3834, "ARG_OF_PERICENTER": 99.7026, "MEAN_ANOMALY": 260.4291, "EPHEMERIS_TYPE": 0, "CLASSIFICATION_TYPE": "U", "NORAD_CAT_ID": 33492, "ELEMENT_SET_NO": 999, "REV_AT_EPOCH": 90501, "BSTAR": 0.0001195553, "MEAN_MOTION_DOT": 6.3e-06, "MEAN_MOTION_DDOT": 0}, "tle": {"line1": "1 33492U 09002A   25352.86520150  .00000630  00000+0  11956-3 0  9999", "line2": "2 33492  98.0772 101.3834 0000992  99.7026 260.4291 14.67537026905019"}}, "geometry": {"type": "Point", "coordinates": [-76.34980009235653, 12.237236531284912]}}, {"type": "Feature", "properties": {"norad_id": 35681, "name": "DEIMOS-1", "group": "resource", "lat": 60.93372006828654, "lon": 139.55301956158922, "alt_km": 637.512802430645, "timestamp": "2025-12-19T08:58:48.994170+00:00", "meta": {"OBJECT_NAME": "DEIMOS-1", "OBJECT_ID": "2009-041A", "EPOCH": "2025-12-18T22:55:54.793056", "MEAN_MOTION": 14.74962914, "ECCENTRICITY": 0.00026414, "INCLINATION": 97.7141, "RA_OF_ASC_NODE": 153.2689, "ARG_OF_PERICENTER": 69.7703, "MEAN_ANOMALY": 290.3791, "EPHEMERIS_TYPE": 0, "CLASSIFICATION_TYPE": "U", "NORAD_CAT_ID": 35681, "ELEMENT_SET_NO": 999, "REV_AT_EPOCH": 88031, "BSTAR": 0.00012056233, "MEAN_MOTION_DOT": 7.63e-06, "MEAN_MOTION_DDOT": 0}, "tle": {"line1": "1 35681U 09041A   25352.95549529  .00000763  00000+0  12056-3 0  9994", "line2": "2 35681  97.7141 153.2689 0002641  69.7703 290.3791 14.74962914880311"}}, "geometry": {"type": "Point", "coordinates": [139.55301956158922, 60.93372006828654]}}, {"type": "Feature", "properties": {"norad_id": 35682, "name": "DUBAISAT-1", "group": "resource", "lat": -11.173773218734098, "lon": 125.54416635294095, "alt_km": 647.2182519968164, "timestamp": "2025-12-19T08:58:48.994180+00:00", "meta": {"OBJECT_NAME": "DUBAISAT-1", "OBJECT_ID": "2009-041B", "EPOCH": "2025-12-18T21:37:53.882112", "MEAN_MOTION": 14.74620478, "ECCENTRICITY": 0.00092976, "INCLINATION": 97.9797, "RA_OF_ASC_NODE": 123.4906, "ARG_OF_PERICENTER": 292.4908, "MEAN_ANOMALY": 67.5316, "EPHEMERIS_TYPE": 0, "CLASSIFICATION_TYPE": "U", "NORAD_CAT_ID": 35682, "ELEMENT_SET_NO": 999, "REV_AT_EPOCH": 87852, "BSTAR": 0.00015693888, "MEAN_MOTION_DOT": 9.96e-06, "MEAN_MOTION_DDOT": 0}, "tle": {"line1": "1 35682U 09041B   25352.90131808  .00000996  00000+0  15694-3 0  9996", "line2": "2 35682  97.9797 123.4906 0009297 292.4908  67.5316 14.74620478878521"}}, "geometry": {"type": "Point", "coordinates": [125.54416635294095, -11.173773218734098]}}, {"type": "Feature", "properties": {"norad_id": 35931, "name": "OCEANSAT-2", "group": "resource", "lat": 1.9807968605832673, "lon": 173.58824565314126, "alt_km": 907.881077534088, "timestamp": "2025-12-19T08:58:48.994191+00:00", "meta": {"OBJECT_NAME": "OCEANSAT-2", "OBJECT_ID": "2009-051A", "EPOCH": "2025-12-18T23:33:19.372608", "MEAN_MOTION": 13.99623418, "ECCENTRICITY": 0.00160576, "INCLINATION": 98.2218, "RA_OF_ASC_NODE": 352.9489, "ARG_OF_PERICENTER": 28.6889, "MEAN_ANOMALY": 331.5158, "EPHEMERIS_TYPE": 0, "CLASSIFICATION_TYPE": "U", "NORAD_CAT_ID": 35931, "ELEMENT_SET_NO": 999, "REV_AT_EPOCH": 85412, "BSTAR": -6.0544618e-05, "MEAN_MOTION_DOT": -1.26e-06, "MEAN_MOTION_DDOT": 0}, "tle": {"line1": "1 35931U 09051A   25352.98147422 -.00000126  00000+0 -60545-4 0  9994", "line2": "2 35931  98.2218 352.9489 0016057  28.6889 331.5158 13.99623418854125"}}, "geometry": {"type": "Point", "coordinates": [173.58824565314126, 1.9807968605832673]}}, {"type": "Feature", "properties": {"norad_id": 35946, "name": "WORLDVIEW-2 (WV-2)", "group": "resource", "lat": 51.085950104065084, "lon": -104.98520383363747, "alt_km": 760.287376463838, "timestamp": "2025-12-19T08:58:48.994202+00:00", "meta": {"OBJECT_NAME": "WORLDVIEW-2 (WV-2)", "OBJECT_ID": "2009-055A", "EPOCH": "2025-12-18T22:21:56.095200", "MEAN_MOTION": 14.37726626, "ECCENTRICITY": 0.00049825, "INCLINATION": 98.4782, "RA_OF_ASC_NODE": 63.9314, "ARG_OF_PERICENTER": 55.5555, "MEAN_ANOMALY": 304.6102, "EPHEMERIS_TYPE": 0, "CLASSIFICATION_TYPE": "U", "NORAD_CAT_ID": 35946, "ELEMENT_SET_NO": 999, "REV_AT_EPOCH": 84974, "BSTAR": 5.9786397e-05, "MEAN_MOTION_DOT": 1.36e-06, "MEAN_MOTION_DDOT": 0}, "tle": {"line1": "1 35946U 09055A   25352.93189925  .00000136  00000+0  59786-4 0  9997", "line2": "2 35946  98.4782  63.9314 0004982  55.5555 304.6102 14.37726626849748"}}, "geometry": {"type": "Point", "coordinates": [-104.98520383363747, 51.085950104065084]}}, {"type": "Feature", "properties": {"norad_id": 36036, "name": "SMOS", "group": "resource", "lat": -31.332832689770502, "lon": -6.860778031835285, "alt_km": 765.8577484726984, "timestamp": "2025-12-19T08:58:48.994212+00:00", "meta": {"OBJECT_NAME": "SMOS", "OBJECT_ID": "2009-059A", "EPOCH": "2025-12-18T21:59:34.682496", "MEAN_MOTION": 14.3974658, "ECCENTRICITY": 0.00010893, "INCLINATION": 98.438, "RA_OF_ASC_NODE": 177.8733, "ARG_OF_PERICENTER": 81.5521, "MEAN_ANOMALY": 278.5791, "EPHEMERIS_TYPE": 0, "CLASSIFICATION_TYPE": "U", "NORAD_CAT_ID": 36036, "ELEMENT_SET_NO": 999, "REV_AT_EPOCH": 84751, "BSTAR": 0.00011196002, "MEAN_MOTION_DOT": 3.07e-06, "MEAN_MOTION_DDOT": 0}, "tle": {"line1": "1 36036U 09059A   25352.91637364  .00000307  00000+0  11196-3 0  9997", "line2": "2 36036  98.4380 177.8733 0001089  81.5521 278.5791 14.39746580847519"}}, "geometry": {"type": "Point", "coordinates": [-6.860778031835285, -31.332832689770502]}}, {"type": "Feature", "properties": {"norad_id": 36110, "name": "YAOGAN-7", "group": "resource", "lat": -41.926458141590736, "lon": 47.823789054107934, "alt_km": 629.8895331490794, "timestamp": "2025-12-19T08:58:48.994222+00:00", "meta": {"OBJECT_NAME": "YAOGAN-7", "OBJECT_ID": "2009-069A", "EPOCH": "2025-12-18T15:43:27.785280", "MEAN_MOTION": 14.77740892, "ECCENTRICITY": 0.00233434, "INCLINATION": 98.0296, "RA_OF_ASC_NODE": 234.3909, "ARG_OF_PERICENTER": 261.1034, "MEAN_ANOMALY": 98.7534, "EPHEMERIS_TYPE": 0, "CLASSIFICATION_TYPE": "U", "NORAD_CAT_ID": 36110, "ELEMENT_SET_NO": 999, "REV_AT_EPOCH": 86296, "BSTAR": 7.4291584e-05, "MEAN_MOTION_DOT": 4.81e-06, "MEAN_MOTION_DDOT": 0}, "tle": {"line1": "1 36110U 09069A   25352.65518270  .00000481  00000+0  74292-4 0  9996", "line2": "2 36110  98.0296 234.3909 0023343 261.1034  98.7534 14.77740892862965"}}, "geometry": {"type": "Point", "coordinates": [47.823789054107934, -41.926458141590736]}}, {"type": "Feature", "properties": {"norad_id": 36605, "name": "TANDEM-X", "group": "resource", "lat": 15.26064121333923, "lon": -3.3868820778111624, "alt_km": 508.6968449394344, "timestamp": "2025-12-19T08:58:48.994233+00:00", "meta": {"OBJECT_NAME": "TANDEM-X", "OBJECT_ID": "2010-030A", "EPOCH": "2025-12-18T13:56:33.642816", "MEAN_MOTION": 15.1915139, "ECCENTRICITY": 0.00018106, "INCLINATION": 97.4444, "RA_OF_ASC_NODE": 357.8759, "ARG_OF_PERICENTER": 79.4695, "MEAN_ANOMALY": 280.6743, "EPHEMERIS_TYPE": 0, "CLASSIFICATION_TYPE": "U", "NORAD_CAT_ID": 36605, "ELEMENT_SET_NO": 999, "REV_AT_EPOCH": 85922, "BSTAR": 3.9209338e-05, "MEAN_MOTION_DOT": 7.56e-06, "MEAN_MOTION_DDOT": 0}, "tle": {"line1": "1 36605U 10030A   25352.58094494  .00000756  00000+0  39209-4 0  9998", "line2": "2 36605  97.4444 357.8759 0001810  79.4695 280.6743 15.19151390859229"}}, "geometry": {"type": "Point", "coordinates": [-3.3868820778111624, 15.26064121333923]}}, {"type": "Feature", "properties": {"norad_id": 36795, "name": "CARTOSAT-2B", "group": "resource", "lat": 6.252681933733199, "lon": -136.95184390665878, "alt_km": 639.5669223072236, "timestamp": "2025-12-19T08:58:48.994242+00:00", "meta": {"OBJECT_NAME": "CARTOSAT-2B", "OBJECT_ID": "2010-035A", "EPOCH": "2025-12-18T22:27:17.928288", "MEAN_MOTION": 14.78733207, "ECCENTRICITY": 0.00128821, "INCLINATION": 97.7851, "RA_OF_ASC_NODE": 41.765, "ARG_OF_PERICENTER": 58.1389, "MEAN_ANOMALY": 302.1074, "EPHEMERIS_TYPE": 0, "CLASSIFICATION_TYPE": "U", "NORAD_CAT_ID": 36795, "ELEMENT_SET_NO": 999, "REV_AT_EPOCH": 83321, "BSTAR": 7.6729716e-05, "MEAN_MOTION_DOT": 5.14e-06, "MEAN_MOTION_DDOT": 0}, "tle": {"line1": "1 36795U 10035A   25352.93562417  .00000514  00000+0  76730-4 0  9999", "line2": "2 36795  97.7851  41.7650 0012882  58.1389 302.1074 14.78733207833213"}}, "geometry": {"type": "Point", "coordinates": [-136.95184390665878, 6.252681933733199]}}, {"type": "Feature", "properties": {"norad_id": 36834, "name": "YAOGAN-10", "group": "resource", "lat": 33.71780503205246, "lon": 7.8190988869314815, "alt_km": 611.9430207702135, "timestamp": "2025-12-19T08:58:48.994253+00:00", "meta": {"OBJECT_NAME": "YAOGAN-10", "OBJECT_ID": "2010-038A", "EPOCH": "2025-12-18T23:30:39.235392", "MEAN_MOTION": 14.84632457, "ECCENTRICITY": 0.00014302, "INCLINATION": 97.9138, "RA_OF_ASC_NODE": 12.754, "ARG_OF_PERICENTER": 81.2797, "MEAN_ANOMALY": 5.4196, "EPHEMERIS_TYPE": 0, "CLASSIFICATION_TYPE": "U", "NORAD_CAT_ID": 36834, "ELEMENT_SET_NO": 999, "REV_AT_EPOCH": 83046, "BSTAR": 0.00024690644, "MEAN_MOTION_DOT": 2.033e-05, "MEAN_MOTION_DDOT": 0}, "tle": {"line1": "1 36834U 10038A   25352.97962078  .00002033  00000+0  24691-3 0  9993", "line2": "2 36834  97.9138  12.7540 0001430  81.2797   5.4196 14.84632457830464"}}, "geometry": {"type": "Point", "coordinates": [7.8190988869314815, 33.71780503205246]}}]}